[{"OBJECT_NAME":"DONGPO 08","OBJECT_ID":"2022-167E","EPOCH":"2026-03-09T22:57:52.742880","MEAN_MOTION":15.31542505,"ECCENTRICITY":0.00092155,"INCLINATION":97.6764,"RA_OF_ASC_NODE":233.3854,"ARG_OF_PERICENTER":153.9158,"MEAN_ANOMALY":206.2548,"EPHEMERIS_TYPE":0,"CLASSIFICATION_TYPE":"U","NORAD_CAT_ID":54686,"ELEMENT_SET_NO":999,"REV_AT_EPOCH":18012,"BSTAR":0.0004734784,"MEAN_MOTION_DOT":0.0001437,"MEAN_MOTION_DDOT":0},{"OBJECT_NAME":"STARLINK-34336","OBJECT_ID":"2025-130AA","EPOCH":"2026-03-09T08:18:45.157536","MEAN_MOTION":15.30161213,"ECCENTRICITY":0.00011591,"INCLINATION":53.1586,"RA_OF_ASC_NODE":92.6753,"ARG_OF_PERICENTER":80.73,"MEAN_ANOMALY":279.3832,"EPHEMERIS_TYPE":0,"CLASSIFICATION_TYPE":"U","NORAD_CAT_ID":64462,"ELEMENT_SET_NO":999,"REV_AT_EPOCH":4061,"BSTAR":0.00058711216,"MEAN_MOTION_DOT":0.00017049,"MEAN_MOTION_DDOT":0}]
